#dP2020 11 20  0  0  0.00000000      96 __u+U ITR00 FIT  IAC
## 2132 432000.00000000   900.00000000 59173 0.0000000000000
+  117   C06C07C08C09C10C11C12C13C14C16C19C20C21C22C23C24C25
+        C26C27C28C29C30C32C33C34C35C36C37C38C39C40C43C44C45
+        C46E01E02E03E04E05E07E08E09E11E12E13E14E15E18E19E21
+        E24E25E26E27E30E31E33E36G01G02G03G04G05G06G07G08G09
+        G10G11G12G13G14G15G16G17G18G19G20G21G22G23G24G25G26
+        G27G28G29G30G31G32J01J02J03R01R02R03R04R05R07R08R09
+        R11R12R13R14R15R16R17R18R19R20R21R22R23R24R25  0  0
++        10  8 10 10  9  8  9 10  8 10  8  8  8  7  9  7  8
++         8  7  8 10  7  9  7  8  8  7  9 13 13 12  9  9  9
++        11  7  8  9  6  7  7  8  7  7  8  6  8  7  7  8  6
++         7  7  7  7  7  7  8  7  7  7  7  6  7  8  7  7  6
++         7  7  7  7 12  7  7  7  7  7  8  9  6  7  7  6  6
++         6  7  7  6  6  7  7  9  8  7  6  8  7  7  9  8  8
++         0  8  8  7  7  9  6  8  8  7  8  8  7  8  7  0  0
%c M  cc GPS ccc cccc cccc cccc cccc ccccc ccccc ccccc ccccc
%c cc cc ccc ccc cccc cccc cccc cccc ccccc ccccc ccccc ccccc
%f  0.0000000  0.000000000  0.00000000000  0.000000000000000
%f  0.0000000  0.000000000  0.00000000000  0.000000000000000
%i    0    0    0    0      0      0      0      0         0
%i    0    0    0    0      0      0      0      0         0
/* INFORMATION & ANALYSIS CENTER (IAC)      ULTRA-RAPID DATA
/* S/V CLOCKS ARE ALIGNED TO GNSS TIME                      
/* G:C1WC2W R:C1PC2P E:C1XC5X C:C2IC6I J:C1CC2S             
/* PCV:IGS14_2131 OL/AL:FES2004  NONE     YN ORB:CoN CLK:CoN
*  2020 11 20 12 45  0.00000000
PC06 -17755.562615  37594.691893  -4921.415591 999999.999999
PC07  -9240.081876  26762.136195  31609.711003 999999.999999
PC08 -23106.827065  21420.848381 -28120.266239 999999.999999
PC09  -8163.304863  39727.983931  10984.028682 999999.999999
PC10   5349.429690  33766.893631  25168.098869 999999.999999
PC11  15181.163839   4052.304613 -22989.229062 999999.999999
PC12   2428.760395  20311.328432 -18956.243303 999999.999999
PC13  -8030.419846  23930.883834 -33747.578418 999999.999999
PC14  19542.854852  14318.285733  13911.186098 999999.999999
PC16 -16166.775109  38688.110098  -3134.476909 999999.999999
PC19 -18838.204768  -4753.405649 -20012.610633 999999.999999
PC20 -17455.634802 -20679.689869  -6756.139656 999999.999999
PC21   5547.774811  24989.570321 -11124.186228 999999.999999
PC22  -9341.742927  14391.028277 -22019.470543 999999.999999
PC23  19650.262453 -11361.760371 -16220.371635 999999.999999
PC24  19401.788273  11763.005832  16223.627442 999999.999999
PC25  27877.091824   -803.476047   -523.448816 999999.999999
PC26   1084.096729  16146.231399  22729.653591 999999.999999
PC27   5274.795871 -24673.913323  11922.241511 999999.999999
PC28  17237.455824 -21239.365727  -5487.921475 999999.999999
PC29 -18881.357450   6110.094677  19617.338944 999999.999999
PC30  -9984.831964 -13672.781523  22186.437946 999999.999999
PC32  -5683.034598 -24935.974890  11165.405494 999999.999999
PC33  18919.864135   4752.449868  19956.198583 999999.999999
PC34  10430.944129  13126.014875 -22308.236777 999999.999999
PC35 -16616.977184  21656.672974   5727.030396 999999.999999
PC36 -27908.039914    -15.119185    275.893744 999999.999999
PC37    122.300839 -16156.692824 -22731.525972 999999.999999
PC38 -17954.620072  24294.593743 -29443.709361 999999.999999
PC39 -11204.820078  40567.951177    298.310759 999999.999999
PC40    288.860072  29877.011014  29838.676120 999999.999999
PC43  18926.391812  -5546.226317 -19750.789302 999999.999999
PC44  -4526.931702  24897.371291 -11734.278467 999999.999999
PC45 -19604.715010  11355.631161  16317.781731 999999.999999
PC46 -20106.077221 -11266.534141 -15751.713085 999999.999999
PE01 -25621.714452 -14621.267425  -2481.589143 999999.999999
PE02  25645.077051  14567.504049   2395.481693 999999.999999
PE03  15072.297806  16085.585480  19751.648539 999999.999999
PE04 -16554.294167   5909.033507 -23819.586362 999999.999999
PE05   4729.723359  28938.516406   4045.344977 999999.999999
PE07   8278.751560 -24792.979963  13879.288490 999999.999999
PE08  16320.521977  -6307.195906  23867.141581 999999.999999
PE09  -7976.678961  24932.928702 -13834.918370 999999.999999
PE11 -18637.202210  20655.100102 -10105.561239 999999.999999
PE12 -26122.803578  10349.968123   9303.552302 999999.999999
PE13  18817.690518 -20627.791312   9827.198391 999999.999999
PE14 -15688.138237   3428.948293  17643.340349 999999.999999
PE15  26065.761171 -10568.286167  -9202.289696 999999.999999
PE18  20483.496822   2311.864694 -24816.485469 999999.999999
PE19 -14174.186608 -18247.020976 -18507.769967 999999.999999
PE21 -11615.342075 -19756.365826 -18731.376626 999999.999999
PE24 -10220.427233  13262.395240  24407.322054 999999.999999
PE25  11428.857666  19756.949321  18855.887960 999999.999999
PE26   -120.113162 -18412.462763  23180.070215 999999.999999
PE27   9565.148242 -13584.507529 -24486.925553 999999.999999
PE30  25292.687516   1129.551037 -15322.125621 999999.999999
PE31 -25011.830554   -523.928828  15839.759087 999999.999999
PE33 -17982.560771  -5706.460299  22818.050106 999999.999999
PE36   -539.807104  18557.873185 -23047.225842 999999.999999
PG01  -1839.320602  15861.434675 -21399.421752 999999.999999
PG02  20385.269312 -15392.458396   7891.741374 999999.999999
PG03   8700.985873  20384.280327 -14791.349929 999999.999999
PG04   -152.644725  25597.937768   6996.841133 999999.999999
PG05  11000.408239 -10767.721021  21501.676729 999999.999999
PG06  25319.184759  -4939.466104  -6349.517840 999999.999999
PG07  15460.680161   9441.385083  19903.951747 999999.999999
PG08  -5671.939973  25663.191240   2604.853128 999999.999999
PG09   9018.893745  18729.376235  16456.987118 999999.999999
PG10 -22732.926500  -9920.156783  -9763.579343 999999.999999
PG11  -7709.723782  22676.392953 -12314.283335 999999.999999
PG12  -4839.822280 -20268.021446 -16792.596729 999999.999999
PG13  13204.425290 -20839.976587   9549.374186 999999.999999
PG14  22053.609430  12574.172458  -7815.419206 999999.999999
PG15   2396.698635 -26200.776598   1269.493122 999999.999999
PG16 -11458.006130   9426.387887  21822.084275 999999.999999
PG17  14693.695788    538.831383 -21682.750048 999999.999999
PG18 -16591.945284  -8177.094545  19073.213018 999999.999999
PG19  15985.705672  -6513.203477 -20446.962233 999999.999999
PG20 -21680.644034 -15386.981427   2437.604095 999999.999999
PG21 -10834.633319  17365.356222 -15986.363876 999999.999999
PG22   1415.395871  18161.089156 -19183.365994 999999.999999
PG23 -20942.630042 -16361.324844    -24.762578 999999.999999
PG24   5055.001494 -17766.162346 -19171.636543 999999.999999
PG25 -16343.911763 -19935.589606  -7201.485264 999999.999999
PG26 -20126.534620    523.913951  17411.781471 999999.999999
PG27 -12237.182543  19218.660478  13205.385602 999999.999999
PG28  21298.324134  10708.781324 -10945.669775 999999.999999
PG29  -5687.044421 -20658.266175  15629.622499 999999.999999
PG30  22771.617081   2790.025469  13614.554925 999999.999999
PG31 -25850.731301   5943.665279  -3988.869165 999999.999999
PG32 -15364.136073   -219.420253 -21567.510384 999999.999999
PJ01 -20384.278291  23247.623052 -24121.925287 999999.999999
PJ02 -27619.344801  21885.393542  28053.521234 999999.999999
PJ03 -31774.359224  26450.778348  13278.596260 999999.999999
PR01 -13667.361189 -11438.086552 -18252.308888 999999.999999
PR02  -7346.689260  10585.449079 -21971.096229 999999.999999
PR03   2603.925437  22940.118045 -10752.674216 999999.999999
PR04  10925.442753  22139.084889   6416.982386 999999.999999
PR05  13042.428322   8951.763135  20003.907857 999999.999999
PR07  -2919.850267 -23205.300162  10265.799785 999999.999999
PR08 -10917.556581 -22176.491493  -6300.751409 999999.999999
PR09  18697.631556  -4959.752445 -16645.621514 999999.999999
PR11      0.000000      0.000000      0.000000 999999.999999
PR12 -25141.320294  -4349.847703    608.978893 999999.999999
PR13 -18851.823037   4698.250397  16517.568733 999999.999999
PR14  -1146.534030  11032.165798  22985.512437 999999.999999
PR15  16728.489370  10860.014490  15923.225481 999999.999999
PR16  25171.601304   3406.683947  -1406.181202 999999.999999
PR17 -10600.034003  20182.836286 -11478.752726 999999.999999
PR18   2503.263061  12279.818996 -22190.031262 999999.999999
PR19  13937.809969  -1155.684347 -21324.328246 999999.999999
PR20  18724.582148 -16119.310844  -6401.398658 999999.999999
PR21   9895.231407 -19899.988101  12493.012924 999999.999999
PR22  -3274.205033 -11498.801304  22535.878009 999999.999999
PR23 -17200.507508   7936.797304  17083.340123 999999.999999
PR24 -18545.307895  16588.681430   5689.838933 999999.999999
PR25  -5514.229029 -11480.591573 -22083.822033 999999.999999
EOF
